{
  "generated_at": "2026-06-23T11:53:38.179268Z",
  "stations": {
    "KLAX": {
      "metar": "METAR KLAX 231053Z 28004KT 10SM FEW009 OVC012 17/15 A3000 RMK AO2 SLP155 T01720150 $",
      "taf": "TAF KLAX 231122Z 2312/2418 VRB03KT P6SM OVC012 FM231700 26006KT P6SM SCT015 FM232100 26012KT P6SM SCT250 FM240300 25006KT P6SM SCT250 FM240700 25005KT P6SM BKN012 FM241700 25006KT P6SM SCT015",
      "messages": []
    },
    "PHNL": {
      "metar": "METAR PHNL 231053Z 06011KT 10SM FEW025 FEW045 26/19 A3000 RMK AO2 SLP157 T02560194 $",
      "taf": "TAF PHNL 231120Z 2312/2418 06011KT P6SM VCSH FEW025 FEW045 FM232000 06013G22KT P6SM FEW025 SCT045 FM240600 06012KT P6SM VCSH SCT025 BKN040 PROB30 2406/2410 P6SM -RA BKN025",
      "messages": []
    },
    "RJAA": {
      "metar": "METAR RJAA 231130Z 02011KT 9999 FEW007 BKN009 18/16 Q1013 NOSIG",
      "taf": "TAF RJAA 231105Z 2312/2418 03010KT 9999 FEW005 BKN015 TEMPO 2312/2316 FEW003 BKN008 TEMPO 2316/2400 FEW001 BKN005 TEMPO 2400/2403 FEW003 BKN008 BECMG 2403/2406 11010KT BECMG 2415/2418 05004KT",
      "messages": []
    },
    "RKSI": {
      "metar": "METAR RKSI 231130Z 27003KT 200V360 CAVOK 24/19 Q1009 NOSIG",
      "taf": "TAF RKSI 231100Z 2312/2418 29005KT CAVOK TN18/2320Z TX29/2406Z BECMG 2314/2316 14006KT 6000 NSC BECMG 2318/2320 03006KT BECMG 2321/2323 09006KT BECMG 2404/2406 26007KT CAVOK BECMG 2410/2412 16005KT",
      "messages": []
    },
    "WADD": {
      "metar": "METAR WADD 231130Z 12011KT 9999 FEW017 27/24 Q1011 NOSIG",
      "taf": "TAF WADD 231100Z 2312/2418 11011KT 9999 SCT016",
      "messages": []
    }
  }
}